ALOS-4 (DAICHI-4)       
1 60182U 24123A   24218.83970985  .00004424  00000+0  59892-3 0  9994
2 60182  97.9222 314.7904 0001558 101.2179 258.9207 14.79473569  5281
